H1 CPF 01  gfz 2022 07 19 00  7001 terrasarx 
H2 0702601  6201 31698    2022 07 19 00 59 42 2022 07 24 00 00 42   120 1 1  0 0 0
H9
10 0 59780  66222.000000  0    5687644.785  -1043472.735   3735123.040
10 0 59780  66342.000000  0    5121392.114  -1129070.345   4457317.777
10 0 59780  66462.000000  0    4464403.212  -1184231.568   5101059.304
10 0 59780  66582.000000  0    3728741.960  -1206517.705   5655048.900
10 0 59780  66702.000000  0    2927875.549  -1194288.352   6109577.120
10 0 59780  66822.000000  0    2076420.104  -1146751.063   6456688.625
10 0 59780  66942.000000  0    1189869.230  -1063991.845   6690315.963
10 0 59780  67062.000000  0     284308.007   -946985.619   6806380.281
10 0 59780  67182.000000  0    -623880.156   -797586.319   6802856.847
10 0 59780  67302.000000  0   -1518308.816   -618497.750   6679807.103
10 0 59780  67422.000000  0   -2382882.554   -413224.813   6439377.453
10 0 59780  67542.000000  0   -3202085.284   -186006.004   6085764.821
10 0 59780  67662.000000  0   -3961259.945     58271.763   5625149.158
10 0 59780  67782.000000  0   -4646875.059    314174.610   5065591.773
10 0 59780  67902.000000  0   -5246772.371    575837.524   4416900.020
10 0 59780  68022.000000  0   -5750391.063    837092.769   3690459.864
10 0 59780  68142.000000  0   -6148962.409   1091608.315   2899038.668
10 0 59780  68262.000000  0   -6435672.316   1333033.257   2056561.448
10 0 59780  68382.000000  0   -6605786.802   1555146.305   1177863.254
10 0 59780  68502.000000  0   -6656737.631   1752004.458    278422.127
10 0 59780  68622.000000  0   -6588163.394   1918087.673   -625922.357
10 0 59780  68742.000000  0   -6401905.402   2048434.994  -1519257.025
10 0 59780  68862.000000  0   -6101959.997   2138769.651  -2385883.149
10 0 59780  68982.000000  0   -5694387.936   2185610.275  -3210600.150
10 0 59780  69102.000000  0   -5187181.971   2186364.308  -3978977.205
10 0 59780  69222.000000  0   -4590098.361   2139401.386  -4677605.926
10 0 59780  69342.000000  0   -3914457.651   2044106.031  -5294330.296
10 0 59780  69462.000000  0   -3172920.364   1900908.958  -5818450.007
10 0 59780  69582.000000  0   -2379243.822   1711296.765  -6240896.150
10 0 59780  69702.000000  0   -1548022.854   1477799.768  -6554377.860
10 0 59780  69822.000000  0    -694420.648   1203958.384  -6753495.642
10 0 59780  69942.000000  0     166103.774    894269.126  -6834823.989
10 0 59780  70062.000000  0    1018068.129    554112.084  -6796963.819
10 0 59780  70182.000000  0    1846239.432    189659.380  -6640566.240
10 0 59780  70302.000000  0    2635900.730   -192234.263  -6368321.634
10 0 59780  70422.000000  0    3373107.774   -584156.329  -5984918.876
10 0 59780  70542.000000  0    4044932.821   -978275.868  -5496971.780
10 0 59780  70662.000000  0    4639691.387  -1366494.870  -4912916.489
10 0 59780  70782.000000  0    5147150.864  -1740611.025  -4242877.516
10 0 59780  70902.000000  0    5558714.447  -2092487.324  -3498502.583
10 0 59780  71022.000000  0    5867577.147  -2414225.434  -2692768.403
10 0 59780  71142.000000  0    6068849.485  -2698339.376  -1839759.044
10 0 59780  71262.000000  0    6159644.841  -2937924.986   -954420.815
10 0 59780  71382.000000  0    6139128.705  -3126821.103    -52298.330
10 0 59780  71502.000000  0    6008527.217  -3259758.377    850743.844
10 0 59780  71622.000000  0    5771095.315  -3332491.854   1738808.027
10 0 59780  71742.000000  0    5432041.900  -3341912.753   2596253.705
10 0 59780  71862.000000  0    4998415.252  -3286136.955   3407980.802
10 0 59780  71982.000000  0    4478952.920  -3164567.275   4159702.355
10 0 59780  72102.000000  0    3883900.711  -2977929.244   4838199.308
10 0 59780  72222.000000  0    3224803.337  -2728280.379   5431555.575
10 0 59780  72342.000000  0    2514272.215  -2418990.354   5929365.218
10 0 59780  72462.000000  0    1765738.224  -2054694.794   6322910.499
10 0 59780  72582.000000  0     993193.314  -1641224.035   6605308.865
10 0 59780  72702.000000  0     210926.073  -1185507.677   6771627.199
10 0 59780  72822.000000  0    -566743.225   -695456.687   6818962.280
10 0 59780  72942.000000  0   -1325723.825   -179825.541   6746487.505
10 0 59780  73062.000000  0   -2052408.552    351943.781   6555466.423
10 0 59780  73182.000000  0   -2733916.874    889894.046   6249232.323
10 0 59780  73302.000000  0   -3358323.665   1423738.130   5833134.087
10 0 59780  73422.000000  0   -3914870.367   1943054.810   5314448.997
10 0 59780  73542.000000  0   -4394155.571   2437492.411   4702262.337
10 0 59780  73662.000000  0   -4788300.726   2896976.565   4007313.354
10 0 59780  73782.000000  0   -5091086.061   3311916.557   3241809.736
10 0 59780  73902.000000  0   -5298055.103   3673406.962   2419215.033
10 0 59780  74022.000000  0   -5406585.241   3973420.306   1554010.940
10 0 59780  74142.000000  0   -5415922.106   4204985.235    661437.256
10 0 59780  74262.000000  0   -5327174.829   4362344.534   -242784.250
10 0 59780  74382.000000  0   -5143274.139   4441089.943  -1142734.640
10 0 59780  74502.000000  0   -4868893.849   4438270.821  -2022587.800
10 0 59780  74622.000000  0   -4510335.967   4352471.839  -2866898.076
10 0 59780  74742.000000  0   -4075384.042   4183858.238  -3660877.093
10 0 59780  74862.000000  0   -3573129.149   3934188.979  -4390654.498
10 0 59780  74982.000000  0   -3013773.920   3606798.205  -5043517.303
10 0 59780  75102.000000  0   -2408421.040   3206546.265  -5608124.061
10 0 59780  75222.000000  0   -1768850.476   2739742.901  -6074693.739
10 0 59780  75342.000000  0   -1107288.171   2214042.155  -6435165.107
10 0 59780  75462.000000  0    -436173.182   1638312.937  -6683323.781
10 0 59780  75582.000000  0     232072.699   1022488.595  -6814898.654
10 0 59780  75702.000000  0     885268.947    377397.349  -6827627.626
10 0 59780  75822.000000  0    1511693.904   -285424.400  -6721293.551
10 0 59780  75942.000000  0    2100290.333   -953934.091  -6497725.981
10 0 59780  76062.000000  0    2640855.977  -1615795.954  -6160773.179
10 0 59780  76182.000000  0    3124218.346  -2258602.878  -5716242.824
10 0 59780  76302.000000  0    3542390.960  -2870104.948  -5171813.709
10 0 59780  76422.000000  0    3888709.518  -3438443.322  -4536913.914
10 0 59780  76542.000000  0    4157941.551  -3952380.663  -3822566.624
10 0 59780  76662.000000  0    4346370.388  -4401525.338  -3041209.074
10 0 59780  76782.000000  0    4451852.012  -4776546.112  -2206483.224
10 0 59780  76902.000000  0    4473841.541  -5069371.435  -1333000.724
10 0 59780  77022.000000  0    4413386.969  -5273368.149   -436085.745
10 0 59780  77142.000000  0    4273090.604  -5383493.121    468498.721
10 0 59780  77262.000000  0    4057038.922  -5396415.111   1364834.896
10 0 59780  77382.000000  0    3770701.897  -5310602.227   2237140.033
10 0 59780  77502.000000  0    3420803.355  -5126372.231   3070052.692
10 0 59780  77622.000000  0    3015167.589  -4845906.625   3848910.444
10 0 59780  77742.000000  0    2562545.497  -4473225.916   4560013.221
10 0 59780  77862.000000  0    2072425.312  -4014128.231   5190866.890
10 0 59780  77982.000000  0    1554832.119  -3476092.966   5730402.275
10 0 59780  78102.000000  0    1020120.634  -2868151.469   6169166.784
10 0 59780  78222.000000  0     478766.271  -2200728.826   6499483.960
10 0 59780  78342.000000  0     -58840.650  -1485460.578   6715580.761
10 0 59780  78462.000000  0    -582593.289   -734987.796   6813682.926
10 0 59780  78582.000000  0   -1082857.065     37267.980   6792077.368
10 0 59780  78702.000000  0   -1550646.168    817344.720   6651139.942
10 0 59780  78822.000000  0   -1977784.440   1590991.601   6393329.088
10 0 59780  78942.000000  0   -2357048.669   2343928.329   6023145.718
10 0 59780  79062.000000  0   -2682291.691   3062108.810   5547059.592
10 0 59780  79182.000000  0   -2948543.816   3731984.869   4973402.762
10 0 59780  79302.000000  0   -3152091.673   4340765.794   4312230.311
10 0 59780  79422.000000  0   -3290531.280   4876668.579   3575148.900
10 0 59780  79542.000000  0   -3362794.496   5329153.521   2775115.325
10 0 59780  79662.000000  0   -3369147.593   5689138.753   1926207.825
10 0 59780  79782.000000  0   -3311162.423   5949187.954   1043374.983
10 0 59780  79902.000000  0   -3191660.396   6103668.762    142167.672
10 0 59780  80022.000000  0   -3014630.514   6148876.792   -761543.164
10 0 59780  80142.000000  0   -2785123.914   6083120.270  -1651856.256
10 0 59780  80262.000000  0   -2509125.368   5906762.345  -2513130.964
10 0 59780  80382.000000  0   -2193405.926   5622219.625  -3330267.757
10 0 59780  80502.000000  0   -1845363.576   5233922.856  -4088974.991
10 0 59780  80622.000000  0   -1472854.698   4748237.069  -4776018.510
10 0 59780  80742.000000  0   -1084021.146   4173346.102  -5379446.871
10 0 59780  80862.000000  0    -687116.317   3519105.671  -5888792.058
10 0 59780  80982.000000  0    -290333.227   2796865.926  -6295242.367
10 0 59780  81102.000000  0      98361.027   2019268.019  -6591783.158
10 0 59780  81222.000000  0     471380.390   1200021.596  -6773306.497
10 0 59780  81342.000000  0     821663.485    353664.677  -6836690.806
10 0 59780  81462.000000  0    1142803.795   -504690.199  -6780848.511
10 0 59780  81582.000000  0    1429163.399  -1359620.461  -6606741.425
10 0 59780  81702.000000  0    1675969.297  -2195662.900  -6317365.085
10 0 59780  81822.000000  0    1879392.261  -2997586.205  -5917703.698
10 0 59780  81942.000000  0    2036606.380  -3750664.920  -5414654.896
10 0 59780  82062.000000  0    2145828.342  -4440951.166  -4816921.086
10 0 59780  82182.000000  0    2206335.207  -5055534.542  -4134868.563
10 0 59780  82302.000000  0    2218460.834  -5582788.733  -3380358.698
10 0 59780  82422.000000  0    2183570.320  -6012600.638  -2566550.058
10 0 59780  82542.000000  0    2104012.611  -6336575.771  -1707673.900
10 0 59780  82662.000000  0    1983050.765  -6548213.214   -818785.911
99
